[{"OBJECT_NAME":"QIANFAN-77","OBJECT_ID":"2025-046E","EPOCH":"2026-03-09T21:49:05.579904","MEAN_MOTION":13.96177726,"ECCENTRICITY":0.00149954,"INCLINATION":88.9748,"RA_OF_ASC_NODE":308.4137,"ARG_OF_PERICENTER":160.933,"MEAN_ANOMALY":199.2411,"EPHEMERIS_TYPE":0,"CLASSIFICATION_TYPE":"U","NORAD_CAT_ID":63163,"ELEMENT_SET_NO":999,"REV_AT_EPOCH":6061,"BSTAR":0.00024077108,"MEAN_MOTION_DOT":3.45e-6,"MEAN_MOTION_DDOT":0},{"OBJECT_NAME":"CZ-3B R\/B","OBJECT_ID":"2024-087C","EPOCH":"2026-03-09T18:36:45.933696","MEAN_MOTION":10.64043142,"ECCENTRICITY":0.25228002,"INCLINATION":53.1167,"RA_OF_ASC_NODE":228.6923,"ARG_OF_PERICENTER":325.4682,"MEAN_ANOMALY":20.5006,"EPHEMERIS_TYPE":0,"CLASSIFICATION_TYPE":"U","NORAD_CAT_ID":59707,"ELEMENT_SET_NO":999,"REV_AT_EPOCH":4214,"BSTAR":0.00064355967,"MEAN_MOTION_DOT":0.00789846,"MEAN_MOTION_DDOT":1.883172e-6}]
